<?xml version="1.0" encoding="UTF-8"?>
<ndm xmlns:xsi="http://www.w3.org/2001/XMLSchema-instance" xsi:noNamespaceSchemaLocation="https://sanaregistry.org/r/ndmxml_unqualified/ndmxml-2.0.0-master-2.0.xsd">
<omm id="CCSDS_OMM_VERS" version="2.0">
<header><CREATION_DATE/><ORIGINATOR/></header><body><segment><metadata><OBJECT_NAME>ORBCOMM FM20</OBJECT_NAME><OBJECT_ID>1998-046D</OBJECT_ID><CENTER_NAME>EARTH</CENTER_NAME><REF_FRAME>TEME</REF_FRAME><TIME_SYSTEM>UTC</TIME_SYSTEM><MEAN_ELEMENT_THEORY>SGP4</MEAN_ELEMENT_THEORY></metadata><data><meanElements><EPOCH>2025-08-23T16:21:15.901920</EPOCH><MEAN_MOTION>14.37311854</MEAN_MOTION><ECCENTRICITY>.00031862</ECCENTRICITY><INCLINATION>44.9929</INCLINATION><RA_OF_ASC_NODE>221.6099</RA_OF_ASC_NODE><ARG_OF_PERICENTER>287.1571</ARG_OF_PERICENTER><MEAN_ANOMALY>72.8928</MEAN_ANOMALY></meanElements><tleParameters><EPHEMERIS_TYPE>0</EPHEMERIS_TYPE><CLASSIFICATION_TYPE>U</CLASSIFICATION_TYPE><NORAD_CAT_ID>25416</NORAD_CAT_ID><ELEMENT_SET_NO>999</ELEMENT_SET_NO><REV_AT_EPOCH>41397</REV_AT_EPOCH><BSTAR>.23308253E-3</BSTAR><MEAN_MOTION_DOT>.56E-5</MEAN_MOTION_DOT><MEAN_MOTION_DDOT>0</MEAN_MOTION_DDOT></tleParameters></data></segment></body></omm>
<omm id="CCSDS_OMM_VERS" version="2.0">
<header><CREATION_DATE/><ORIGINATOR/></header><body><segment><metadata><OBJECT_NAME>ORBCOMM FM16</OBJECT_NAME><OBJECT_ID>1998-046E</OBJECT_ID><CENTER_NAME>EARTH</CENTER_NAME><REF_FRAME>TEME</REF_FRAME><TIME_SYSTEM>UTC</TIME_SYSTEM><MEAN_ELEMENT_THEORY>SGP4</MEAN_ELEMENT_THEORY></metadata><data><meanElements><EPOCH>2025-08-23T22:39:01.098144</EPOCH><MEAN_MOTION>14.39051344</MEAN_MOTION><ECCENTRICITY>.00068475</ECCENTRICITY><INCLINATION>44.9924</INCLINATION><RA_OF_ASC_NODE>211.0395</RA_OF_ASC_NODE><ARG_OF_PERICENTER>288.0462</ARG_OF_PERICENTER><MEAN_ANOMALY>71.9640</MEAN_ANOMALY></meanElements><tleParameters><EPHEMERIS_TYPE>0</EPHEMERIS_TYPE><CLASSIFICATION_TYPE>U</CLASSIFICATION_TYPE><NORAD_CAT_ID>25417</NORAD_CAT_ID><ELEMENT_SET_NO>999</ELEMENT_SET_NO><REV_AT_EPOCH>41401</REV_AT_EPOCH><BSTAR>.35029595E-3</BSTAR><MEAN_MOTION_DOT>.95E-5</MEAN_MOTION_DOT><MEAN_MOTION_DDOT>0</MEAN_MOTION_DDOT></tleParameters></data></segment></body></omm>
<omm id="CCSDS_OMM_VERS" version="2.0">
<header><CREATION_DATE/><ORIGINATOR/></header><body><segment><metadata><OBJECT_NAME>ORBCOMM FM15</OBJECT_NAME><OBJECT_ID>1998-046F</OBJECT_ID><CENTER_NAME>EARTH</CENTER_NAME><REF_FRAME>TEME</REF_FRAME><TIME_SYSTEM>UTC</TIME_SYSTEM><MEAN_ELEMENT_THEORY>SGP4</MEAN_ELEMENT_THEORY></metadata><data><meanElements><EPOCH>2025-08-23T09:08:59.248320</EPOCH><MEAN_MOTION>14.38690878</MEAN_MOTION><ECCENTRICITY>.00065452</ECCENTRICITY><INCLINATION>44.9956</INCLINATION><RA_OF_ASC_NODE>219.0583</RA_OF_ASC_NODE><ARG_OF_PERICENTER>284.8780</ARG_OF_PERICENTER><MEAN_ANOMALY>75.1343</MEAN_ANOMALY></meanElements><tleParameters><EPHEMERIS_TYPE>0</EPHEMERIS_TYPE><CLASSIFICATION_TYPE>U</CLASSIFICATION_TYPE><NORAD_CAT_ID>25418</NORAD_CAT_ID><ELEMENT_SET_NO>999</ELEMENT_SET_NO><REV_AT_EPOCH>41392</REV_AT_EPOCH><BSTAR>.29231326E-3</BSTAR><MEAN_MOTION_DOT>.763E-5</MEAN_MOTION_DOT><MEAN_MOTION_DDOT>0</MEAN_MOTION_DDOT></tleParameters></data></segment></body></omm>
<omm id="CCSDS_OMM_VERS" version="2.0">
<header><CREATION_DATE/><ORIGINATOR/></header><body><segment><metadata><OBJECT_NAME>ORBCOMM FM14</OBJECT_NAME><OBJECT_ID>1998-046G</OBJECT_ID><CENTER_NAME>EARTH</CENTER_NAME><REF_FRAME>TEME</REF_FRAME><TIME_SYSTEM>UTC</TIME_SYSTEM><MEAN_ELEMENT_THEORY>SGP4</MEAN_ELEMENT_THEORY></metadata><data><meanElements><EPOCH>2025-08-23T15:49:56.756352</EPOCH><MEAN_MOTION>14.39061288</MEAN_MOTION><ECCENTRICITY>.00053335</ECCENTRICITY><INCLINATION>44.9945</INCLINATION><RA_OF_ASC_NODE>215.7779</RA_OF_ASC_NODE><ARG_OF_PERICENTER>285.0928</ARG_OF_PERICENTER><MEAN_ANOMALY>74.9330</MEAN_ANOMALY></meanElements><tleParameters><EPHEMERIS_TYPE>0</EPHEMERIS_TYPE><CLASSIFICATION_TYPE>U</CLASSIFICATION_TYPE><NORAD_CAT_ID>25419</NORAD_CAT_ID><ELEMENT_SET_NO>999</ELEMENT_SET_NO><REV_AT_EPOCH>41393</REV_AT_EPOCH><BSTAR>.29310285E-3</BSTAR><MEAN_MOTION_DOT>.772E-5</MEAN_MOTION_DOT><MEAN_MOTION_DDOT>0</MEAN_MOTION_DDOT></tleParameters></data></segment></body></omm>
<omm id="CCSDS_OMM_VERS" version="2.0">
<header><CREATION_DATE/><ORIGINATOR/></header><body><segment><metadata><OBJECT_NAME>ORBCOMM FM13</OBJECT_NAME><OBJECT_ID>1998-046H</OBJECT_ID><CENTER_NAME>EARTH</CENTER_NAME><REF_FRAME>TEME</REF_FRAME><TIME_SYSTEM>UTC</TIME_SYSTEM><MEAN_ELEMENT_THEORY>SGP4</MEAN_ELEMENT_THEORY></metadata><data><meanElements><EPOCH>2025-08-23T16:39:14.302656</EPOCH><MEAN_MOTION>14.37790585</MEAN_MOTION><ECCENTRICITY>.00072096</ECCENTRICITY><INCLINATION>44.9962</INCLINATION><RA_OF_ASC_NODE>224.2544</RA_OF_ASC_NODE><ARG_OF_PERICENTER>268.6042</ARG_OF_PERICENTER><MEAN_ANOMALY>91.3980</MEAN_ANOMALY></meanElements><tleParameters><EPHEMERIS_TYPE>0</EPHEMERIS_TYPE><CLASSIFICATION_TYPE>U</CLASSIFICATION_TYPE><NORAD_CAT_ID>25420</NORAD_CAT_ID><ELEMENT_SET_NO>999</ELEMENT_SET_NO><REV_AT_EPOCH>41295</REV_AT_EPOCH><BSTAR>.2590771E-3</BSTAR><MEAN_MOTION_DOT>.646E-5</MEAN_MOTION_DOT><MEAN_MOTION_DDOT>0</MEAN_MOTION_DDOT></tleParameters></data></segment></body></omm>
<omm id="CCSDS_OMM_VERS" version="2.0">
<header><CREATION_DATE/><ORIGINATOR/></header><body><segment><metadata><OBJECT_NAME>ORBCOMM FM21</OBJECT_NAME><OBJECT_ID>1998-053A</OBJECT_ID><CENTER_NAME>EARTH</CENTER_NAME><REF_FRAME>TEME</REF_FRAME><TIME_SYSTEM>UTC</TIME_SYSTEM><MEAN_ELEMENT_THEORY>SGP4</MEAN_ELEMENT_THEORY></metadata><data><meanElements><EPOCH>2025-08-23T22:10:59.465568</EPOCH><MEAN_MOTION>14.37455236</MEAN_MOTION><ECCENTRICITY>.00034992</ECCENTRICITY><INCLINATION>45.0091</INCLINATION><RA_OF_ASC_NODE>308.6903</RA_OF_ASC_NODE><ARG_OF_PERICENTER>224.7529</ARG_OF_PERICENTER><MEAN_ANOMALY>135.3037</MEAN_ANOMALY></meanElements><tleParameters><EPHEMERIS_TYPE>0</EPHEMERIS_TYPE><CLASSIFICATION_TYPE>U</CLASSIFICATION_TYPE><NORAD_CAT_ID>25475</NORAD_CAT_ID><ELEMENT_SET_NO>999</ELEMENT_SET_NO><REV_AT_EPOCH>40699</REV_AT_EPOCH><BSTAR>.21028702E-3</BSTAR><MEAN_MOTION_DOT>.493E-5</MEAN_MOTION_DOT><MEAN_MOTION_DDOT>0</MEAN_MOTION_DDOT></tleParameters></data></segment></body></omm>
<omm id="CCSDS_OMM_VERS" version="2.0">
<header><CREATION_DATE/><ORIGINATOR/></header><body><segment><metadata><OBJECT_NAME>ORBCOMM FM22</OBJECT_NAME><OBJECT_ID>1998-053B</OBJECT_ID><CENTER_NAME>EARTH</CENTER_NAME><REF_FRAME>TEME</REF_FRAME><TIME_SYSTEM>UTC</TIME_SYSTEM><MEAN_ELEMENT_THEORY>SGP4</MEAN_ELEMENT_THEORY></metadata><data><meanElements><EPOCH>2025-08-23T21:52:49.325664</EPOCH><MEAN_MOTION>14.38524511</MEAN_MOTION><ECCENTRICITY>.00052561</ECCENTRICITY><INCLINATION>45.0080</INCLINATION><RA_OF_ASC_NODE>303.0503</RA_OF_ASC_NODE><ARG_OF_PERICENTER>220.3879</ARG_OF_PERICENTER><MEAN_ANOMALY>139.6579</MEAN_ANOMALY></meanElements><tleParameters><EPHEMERIS_TYPE>0</EPHEMERIS_TYPE><CLASSIFICATION_TYPE>U</CLASSIFICATION_TYPE><NORAD_CAT_ID>25476</NORAD_CAT_ID><ELEMENT_SET_NO>999</ELEMENT_SET_NO><REV_AT_EPOCH>40702</REV_AT_EPOCH><BSTAR>.26969024E-3</BSTAR><MEAN_MOTION_DOT>.69E-5</MEAN_MOTION_DOT><MEAN_MOTION_DDOT>0</MEAN_MOTION_DDOT></tleParameters></data></segment></body></omm>
<omm id="CCSDS_OMM_VERS" version="2.0">
<header><CREATION_DATE/><ORIGINATOR/></header><body><segment><metadata><OBJECT_NAME>ORBCOMM FM23</OBJECT_NAME><OBJECT_ID>1998-053C</OBJECT_ID><CENTER_NAME>EARTH</CENTER_NAME><REF_FRAME>TEME</REF_FRAME><TIME_SYSTEM>UTC</TIME_SYSTEM><MEAN_ELEMENT_THEORY>SGP4</MEAN_ELEMENT_THEORY></metadata><data><meanElements><EPOCH>2025-08-23T21:59:18.914496</EPOCH><MEAN_MOTION>14.37651419</MEAN_MOTION><ECCENTRICITY>.00044017</ECCENTRICITY><INCLINATION>45.0089</INCLINATION><RA_OF_ASC_NODE>310.7541</RA_OF_ASC_NODE><ARG_OF_PERICENTER>217.2653</ARG_OF_PERICENTER><MEAN_ANOMALY>142.7890</MEAN_ANOMALY></meanElements><tleParameters><EPHEMERIS_TYPE>0</EPHEMERIS_TYPE><CLASSIFICATION_TYPE>U</CLASSIFICATION_TYPE><NORAD_CAT_ID>25477</NORAD_CAT_ID><ELEMENT_SET_NO>999</ELEMENT_SET_NO><REV_AT_EPOCH>40714</REV_AT_EPOCH><BSTAR>.25242102E-3</BSTAR><MEAN_MOTION_DOT>.623E-5</MEAN_MOTION_DOT><MEAN_MOTION_DDOT>0</MEAN_MOTION_DDOT></tleParameters></data></segment></body></omm>

</ndm>
