ORBCOMM FM20            
1 25416U 98046D   25235.68143405  .00000560  00000+0  23308-3 0  9992
2 25416  44.9929 221.6099 0003186 287.1571  72.8928 14.37311854413972
ORBCOMM FM16            
1 25417U 98046E   25235.94376271  .00000950  00000+0  35030-3 0  9999
2 25417  44.9924 211.0395 0006847 288.0462  71.9640 14.39051344414010
ORBCOMM FM15            
1 25418U 98046F   25235.38124130  .00000763  00000+0  29231-3 0  9991
2 25418  44.9956 219.0583 0006545 284.8780  75.1343 14.38690878413920
ORBCOMM FM14            
1 25419U 98046G   25235.65968468  .00000772  00000+0  29310-3 0  9990
2 25419  44.9945 215.7779 0005333 285.0928  74.9330 14.39061288413932
ORBCOMM FM13            
1 25420U 98046H   25235.69391554  .00000646  00000+0  25908-3 0  9991
2 25420  44.9962 224.2544 0007209 268.6042  91.3980 14.37790585412958
ORBCOMM FM21            
1 25475U 98053A   25235.92429937  .00000493  00000+0  21029-3 0  9992
2 25475  45.0091 308.6903 0003499 224.7529 135.3037 14.37455236406999
ORBCOMM FM22            
1 25476U 98053B   25235.91168201  .00000690  00000+0  26969-3 0  9993
2 25476  45.0080 303.0503 0005256 220.3879 139.6579 14.38524511407023
ORBCOMM FM23            
1 25477U 98053C   25235.91619114  .00000623  00000+0  25242-3 0  9997
2 25477  45.0089 310.7541 0004401 217.2653 142.7890 14.37651419407147
